[Satellite]
VERSION=1.1
NAME=STARLINK-5032
NICKNAME=STARLINK-5032
TLE1=1 53895U 22119K   22297.16668981 -.00155338  00000+0 -11218-2 0  9993
TLE2=2 53895  53.2140 108.4901 0001008  65.3507   3.8950 15.73223960  5036
STATUS=0
